{
  "status": "success",
  "hasErrors": false,
  "message": "",
  "length": 155,
  "payload": [
    {
      "_index": "tle",
      "_type": "_doc",
      "_id": "GFaStXYBAz3ao6c9lS-l",
      "_score": 9.150519,
      "_source": {
        "right_ascension": "223.8794",
        "anomaly": "018.4504",
        "calc_anomaly": 18.4504,
        "satellite_number": 10976,
        "calc_mean_motion": 2.22204034,
        "ephemeris": "0",
        "set_number": "094",
        "calc_ballistic_coefficient": 0.00000129,
        "epoch": "03005.60053466",
        "international_designator": "78068B",
        "calc_inclination": 21.1098,
        "perigee": "261.4398",
        "revolution_number": "1989",
        "line_number": 101869,
        "calc_perigee": 261.4398,
        "drag": "+19086-2",
        "text": "1 10976U 78068B   03005.60053466 +.00000129  00000-0  19086-2 0   944\n2 10976  21.1098 223.8794 7198136 261.4398  18.4504  2.22204034 19897",
        "calc_drag": 0.0019086,
        "timestamp": "2003-01-05 14:24:46",
        "inclination": "021.1098",
        "eccentricity": "7198136",
        "classification": "U",
        "calc_right_ascension": 223.8794,
        "calc_mean_motion_2": 0,
        "ballistic_coefficient": "+.00000129",
        "filename": "tle2004_3of8.txt",
        "calc_eccentricity": 0.7198136,
        "mean_motion": "02.22204034",
        "mean_motion_2": "+00000-0"
      }
    },
    {
      "_index": "tle",
      "_type": "_doc",
      "_id": "ZFihtXYBAz3ao6c9OgnG",
      "_score": 9.150519,
      "_source": {
        "right_ascension": "45.9838",
        "anomaly": "59.9827",
        "calc_anomaly": 59.9827,
        "satellite_number": 10976,
        "calc_mean_motion": 2.22213055,
        "ephemeris": "0",
        "set_number": "230",
        "calc_ballistic_coefficient": -8.4e-7,
        "epoch": "04152.78221709",
        "international_designator": "78068B",
        "calc_inclination": 22.0405,
        "perigee": "217.1476",
        "revolution_number": "21029",
        "line_number": 12299,
        "calc_perigee": 217.1476,
        "drag": "19086-2",
        "text": "1 10976U 78068B   04152.78221709 -.00000084  00000-0  19086-2 0  2307\n2 10976  22.0405  45.9838 7184534 217.1476  59.9827  2.22213055210291",
        "calc_drag": 0.0019086,
        "timestamp": "2004-05-31 18:46:23",
        "inclination": "22.0405",
        "eccentricity": "7184534",
        "classification": "U",
        "calc_right_ascension": 45.9838,
        "calc_mean_motion_2": 0,
        "ballistic_coefficient": "-.00000084",
        "filename": "tle2004_5of8.txt",
        "calc_eccentricity": 0.7184534,
        "mean_motion": "2.22213055",
        "mean_motion_2": "00000-0"
      }
    },
    {
      "_index": "tle",
      "_type": "_doc",
      "_id": "bFihtXYBAz3ao6c9khOz",
      "_score": 9.150519,
      "_source": {
        "right_ascension": "45.5068",
        "anomaly": "58.4964",
        "calc_anomaly": 58.4964,
        "satellite_number": 10976,
        "calc_mean_motion": 2.2221266,
        "ephemeris": "0",
        "set_number": "231",
        "calc_ballistic_coefficient": -7.2e-7,
        "epoch": "04154.13043687",
        "international_designator": "78068B",
        "calc_inclination": 22.0387,
        "perigee": "217.9851",
        "revolution_number": "21032",
        "line_number": 21143,
        "calc_perigee": 217.9851,
        "drag": "19086-2",
        "text": "1 10976U 78068B   04154.13043687 -.00000072  00000-0  19086-2 0  2313\n2 10976  22.0387  45.5068 7184611 217.9851  58.4964  2.22212660210323",
        "calc_drag": 0.0019086,
        "timestamp": "2004-06-02 03:07:49",
        "inclination": "22.0387",
        "eccentricity": "7184611",
        "classification": "U",
        "calc_right_ascension": 45.5068,
        "calc_mean_motion_2": 0,
        "ballistic_coefficient": "-.00000072",
        "filename": "tle2004_5of8.txt",
        "calc_eccentricity": 0.7184611,
        "mean_motion": "2.22212660",
        "mean_motion_2": "00000-0"
      }
    },
    {
      "_index": "tle",
      "_type": "_doc",
      "_id": "TlintXYBAz3ao6c9tvcY",
      "_score": 9.150519,
      "_source": {
        "right_ascension": "44.1164",
        "anomaly": "54.2739",
        "calc_anomaly": 54.2739,
        "satellite_number": 10976,
        "calc_mean_motion": 2.22211851,
        "ephemeris": "0",
        "set_number": "234",
        "calc_ballistic_coefficient": -4.3e-7,
        "epoch": "04158.17541775",
        "international_designator": "78068B",
        "calc_inclination": 22.0521,
        "perigee": "220.4795",
        "revolution_number": "21041",
        "line_number": 60085,
        "calc_perigee": 220.4795,
        "drag": "19086-2",
        "text": "1 10976U 78068B   04158.17541775 -.00000043  00000-0  19086-2 0  2343\n2 10976  22.0521  44.1164 7185430 220.4795  54.2739  2.22211851210416",
        "calc_drag": 0.0019086,
        "timestamp": "2004-06-06 04:12:36",
        "inclination": "22.0521",
        "eccentricity": "7185430",
        "classification": "U",
        "calc_right_ascension": 44.1164,
        "calc_mean_motion_2": 0,
        "ballistic_coefficient": "-.00000043",
        "filename": "tle2004_5of8.txt",
        "calc_eccentricity": 0.718543,
        "mean_motion": "2.22211851",
        "mean_motion_2": "00000-0"
      }
    },
    {
      "_index": "tle",
      "_type": "_doc",
      "_id": "H1vBtXYBAz3ao6c9_azM",
      "_score": 9.150519,
      "_source": {
        "right_ascension": "330.1920",
        "anomaly": "000.6470",
        "calc_anomaly": 0.647,
        "satellite_number": 10976,
        "calc_mean_motion": 2.22226481,
        "ephemeris": "0",
        "set_number": "0344",
        "calc_ballistic_coefficient": -3.7e-7,
        "epoch": "05012.16665552",
        "international_designator": "78068B",
        "calc_inclination": 21.9772,
        "perigee": "352.6643",
        "revolution_number": "21530",
        "line_number": 248427,
        "calc_perigee": 352.6643,
        "drag": "+19086-2",
        "text": "1 10976U 78068B   05012.16665552 -.00000037  00000-0  19086-2 0  3447\n2 10976  21.9772 330.1920 7183100 352.6643   0.6470  2.22226481215307",
        "calc_drag": 0.0019086,
        "timestamp": "2005-01-12 03:59:59",
        "inclination": "021.9772",
        "eccentricity": "7183100",
        "classification": "U",
        "calc_right_ascension": 330.192,
        "calc_mean_motion_2": 0,
        "ballistic_coefficient": "-.00000037",
        "filename": "tle2005.txt",
        "calc_eccentricity": 0.71831,
        "mean_motion": "02.22226481",
        "mean_motion_2": "+00000-0"
      }
    },
    {
      "_index": "tle",
      "_type": "_doc",
      "_id": "TlzFtXYBAz3ao6c9XxlT",
      "_score": 9.150519,
      "_source": {
        "right_ascension": "017.1751",
        "anomaly": "016.1036",
        "calc_anomaly": 16.1036,
        "satellite_number": 10976,
        "calc_mean_motion": 2.22213831,
        "ephemeris": "0",
        "set_number": "276",
        "calc_ballistic_coefficient": -6e-8,
        "epoch": "04237.78224175",
        "international_designator": "78068B",
        "calc_inclination": 22.1645,
        "perigee": "268.6979",
        "revolution_number": "21218",
        "line_number": 183681,
        "calc_perigee": 268.6979,
        "drag": "19086-2",
        "text": "1 10976U 78068B   04237.78224175 -.00000006  00000-0  19086-2 0  2765\n2 10976  22.1645  17.1751 7177790 268.6979  16.1036  2.22213831212187",
        "calc_drag": 0.0019086,
        "timestamp": "2004-08-24 18:46:25",
        "inclination": "022.1645",
        "eccentricity": "7177790",
        "classification": "U",
        "calc_right_ascension": 17.1751,
        "calc_mean_motion_2": 0,
        "ballistic_coefficient": "-.00000006",
        "filename": "tle2004_8of8.txt",
        "calc_eccentricity": 0.717779,
        "mean_motion": "02.22213831",
        "mean_motion_2": "00000-0"
      }
    },
    {
      "_index": "tle",
      "_type": "_doc",
      "_id": "j-_ktXYBwxzt-ZlwdCa2",
      "_score": 9.150519,
      "_source": {
        "right_ascension": "207.1758",
        "anomaly": "071.5397",
        "calc_anomaly": 71.5397,
        "satellite_number": 10976,
        "calc_mean_motion": 2.222249,
        "ephemeris": "0",
        "set_number": "557",
        "calc_ballistic_coefficient": 9.9e-7,
        "epoch": "06004.55229166",
        "international_designator": "78068B",
        "calc_inclination": 21.2245,
        "perigee": "211.5702",
        "revolution_number": "22325",
        "line_number": 105235,
        "calc_perigee": 211.5702,
        "drag": "19086-2",
        "text": "1 10976U 78068B   06004.55229166  .00000099  00000-0  19086-2 0  5572\n2 10976  21.2245 207.1758 7179862 211.5702  71.5397  2.22224900223258",
        "calc_drag": 0.0019086,
        "timestamp": "2006-01-04 13:15:17",
        "inclination": "021.2245",
        "eccentricity": "7179862",
        "classification": "U",
        "calc_right_ascension": 207.1758,
        "calc_mean_motion_2": 0,
        "ballistic_coefficient": ".00000099",
        "filename": "tle2006.txt",
        "calc_eccentricity": 0.7179862,
        "mean_motion": "02.22224900",
        "mean_motion_2": "00000-0"
      }
    }
  ]
}